[{"coords":[-80.369092,25.873381],"place_name":"Costa Del Sol Enterprise, 11800 NW 102nd Rd, Miami, Florida 33178, United States"},{"coords":[-80.203781,25.769792],"place_name":"560 Southwest 4th Street, Miami, Florida 33130, United States"},{"coords":[-80.32284712257997,25.78099266509627],"place_name":"Dolphin Expressway, Miami, Florida 33126, United States"},{"coords":[-80.189182,25.808334],"place_name":"3301 Biscayne Boulevard, Miami, Florida 33137, United States"},{"coords":[-80.332474,25.908394],"place_name":"8100 Oak Lane, Hialeah, Florida 33016, United States"},{"coords":[-80.316838,25.762047],"place_name":"824 Southwest 74th Court, Miami, Florida 33144, United States"},{"coords":[-80.274561,25.748084],"place_name":"2415 Granada Boulevard, Miami, Florida 33134, United States"},{"coords":[-80.29723,25.895712],"place_name":"606 West 81st Street, Hialeah, Florida 33014, United States"},{"coords":[-80.298477,25.814167],"place_name":"26 Truxton Drive, Miami, Florida 33166, United States"},{"coords":[-80.238136,25.866241],"place_name":"2391 Northwest 100th Street, Miami, Florida 33147, United States"},{"coords":[-80.310703,25.811943],"place_name":"4101 NW 70th Ave, Miami, Florida 33166, United States"},{"coords":[-80.270271,25.902332],"place_name":"Curtiss Street, Opa Locka, Florida 33054, United States"},{"coords":[-80.202042,25.834692],"place_name":"6407 Northwest 3rd Avenue, Miami, Florida 33150, United States"},{"coords":[-80.27384,25.831379],"place_name":"395 East 10th Street, Hialeah, Florida 33010, United States"},{"coords":[-80.192419,25.869495],"place_name":"262 Northeast 103rd Street, Miami, Florida 33138, United States"},{"coords":[-80.228189,25.74689],"place_name":"2430 Southwest 21st Avenue, Miami, Florida 33145, United States"},{"coords":[-80.314718,25.900847],"place_name":"14001 Cypress Court, Hialeah, Florida 33014, United States"},{"coords":[-80.265836,25.923691],"place_name":"3930 Northwest 165th Street, Opa Locka, Florida 33054, United States"},{"coords":[-80.215961,25.761691],"place_name":"1215 Southwest 13th Avenue, Miami, Florida 33135, United States"},{"coords":[-80.346786,25.856915],"place_name":"Northwest 92nd Avenue, Miami, Florida 33166, United States"},{"coords":[-80.315177,25.863654],"place_name":"4550 West 16th Avenue, Hialeah, Florida 33012, United States"},{"coords":[-80.38300537311908,25.87685131251447],"place_name":"Northwest 114th Street, Miami, Florida 33178, United States"},{"coords":[-80.370229,25.760423],"place_name":"10700 Southwest 8th Street, Miami, Florida 33174, United States"},{"coords":[-80.335306,25.862348],"place_name":"9800 Northwest South River Drive, Miami, Florida 33166, United States"},{"coords":[-80.320712,25.89426],"place_name":"1830 West 79th Street, Hialeah, Florida 33014, United States"},{"coords":[-80.348527,25.87271],"place_name":"10903 Northwest South River Drive, Miami, Florida 33178, United States"},{"coords":[-80.26021,25.76022],"place_name":"235 Sidonia Avenue, Miami, Florida 33134, United States"},{"coords":[-80.356973,25.841047],"place_name":"9850 Northwest 74th Street, Miami, Florida 33178, United States"},{"coords":[-80.315302,25.848049],"place_name":"8211 Northwest South River Drive, Miami, Florida 33166, United States"},{"coords":[-80.34950384710169,25.914873267450723],"place_name":"I 75, Hialeah, Florida 33016, United States"},{"coords":[-80.22654132931834,25.912773780186086],"place_name":"Florida Highway 9, Opa Locka, Florida 33054, United States"},{"coords":[-80.319998,25.801035],"place_name":"2975 Northwest 77th Avenue, Miami, Florida 33122, United States"},{"coords":[-80.215712,25.86626],"place_name":"1091 Northwest 100th Street, Miami, Florida 33150, United States"},{"coords":[-80.321458,25.92239],"place_name":"16400 Loch Ness Lane, Hialeah, Florida 33014, United States"},{"coords":[-80.270798,25.766935],"place_name":"4600 Southwest 5th Street, Miami, Florida 33134, United States"},{"coords":[-80.346786,25.856915],"place_name":"Northwest 92nd Avenue, Miami, Florida 33166, United States"},{"coords":[-80.315446,25.849387],"place_name":"3025 W Okeechobee Rd, Hialeah, Florida 33012, United States"},{"coords":[-80.251242,25.918347],"place_name":"3031 Northwest 158th Street, Opa Locka, Florida 33054, United States"},{"coords":[-80.358692,25.817847],"place_name":"9946 Northwest 49th Terrace, Miami, Florida 33178, United States"},{"coords":[-80.284059,25.924526],"place_name":"5150 Northwest 167th Street, Hialeah, Florida 33014, United States"},{"coords":[-80.195796,25.852093],"place_name":"8334 Northeast 1st Avenue, Miami, Florida 33138, United States"},{"coords":[-80.28849,25.906664],"place_name":"5499 NW 145th St, Opa Locka, Florida 33054, United States"},{"coords":[-80.354197,25.812472],"place_name":"Mrs. Mendoza'a, 9705 NW 41st St, Miami, Florida 33178, United States"},{"coords":[-80.230061,25.918816],"place_name":"15821 Northwest 18th Avenue, Opa Locka, Florida 33054, United States"},{"coords":[-80.326944,25.853233],"place_name":"8850 Northwest 79th Avenue, Miami, Florida 33166, United States"},{"coords":[-80.21535857160195,25.785152352635727],"place_name":"Dolphin Expressway, Miami, Florida 33125, United States"},{"coords":[-80.32461179722056,25.90373482183379],"place_name":"15146 State Road 826, Hialeah, Florida 33016, United States"},{"coords":[-80.29242955202038,25.78452490839985],"place_name":"Dolphin Expressway, Miami, Florida 33126, United States"},{"coords":[-80.350843,25.748954],"place_name":"9565 Southwest 24th Street, Miami, Florida 33165, United States"},{"coords":[-80.38450670352742,25.87683724187812],"place_name":"Northwest 114th Street, Miami, Florida 33178, United States"},{"coords":[-80.133588888889,25.7985],"place_name":"Miami Beach Senior High School, 2231 Prairie Ave, Miami Beach, Florida 33140, United States"},{"coords":[-80.130538,25.770536],"place_name":"Topless Beach, Miami Beach, Florida 33139, United States"},{"coords":[-80.131352,25.816411],"place_name":"4244 Chase Avenue, Miami Beach, Florida 33140, United States"},{"coords":[-80.133445,25.776839],"place_name":"Sandel Beach, 685 Washington Ave, Miami Beach, Florida 33139, United States"},{"coords":[-80.13584,25.818454],"place_name":"4431 Alton Road, Miami Beach, Florida 33140, United States"},{"coords":[-80.13953,25.771534],"place_name":"344 Alton Road, Miami Beach, Florida 33139, United States"},{"coords":[-80.13262,25.777067],"place_name":"Puerto Sagua Restaurant, 700 Collins Ave, Miami Beach, Florida 33139, United States"},{"coords":[-80.131448,25.797041],"place_name":"430 21st Street, Miami Beach, Florida 33139, United States"},{"coords":[-80.13224,25.782093],"place_name":"1101 Washington Avenue, Miami Beach, Florida 33139, United States"},{"coords":[-80.140339,25.791233],"place_name":"1666 Lenox Avenue, Miami Beach, Florida 33139, United States"},{"coords":[-80.137502,25.785183],"place_name":"1200 Meridian Avenue, Miami Beach, Florida 33139, United States"},{"coords":[-80.135245,25.769113],"place_name":"Joe's Take Away, 11 Washington Ave, Miami Beach, Florida 33139, United States"},{"coords":[-80.140641,25.798077],"place_name":"2046 North Bay Road, Miami Beach, Florida 33140, United States"},{"coords":[-80.136897,25.808281],"place_name":"3098 Alton Road, Miami Beach, Florida 33140, United States"},{"coords":[-80.131449,25.816006],"place_name":"4220 Chase Avenue, Miami Beach, Florida 33140, United States"},{"coords":[-80.139271,25.786915],"place_name":"1440 Michigan Avenue, Miami Beach, Florida 33139, United States"},{"coords":[-80.134135,25.802325],"place_name":"2425 Meridian Avenue, Miami Beach, Florida 33140, United States"},{"coords":[-80.136845,25.77382],"place_name":"837 4th Street, Miami Beach, Florida 33139, United States"},{"coords":[-80.132107,25.82161],"place_name":"845 West 46th Street, Miami Beach, Florida 33140, United States"},{"coords":[-80.131821,25.819246],"place_name":"4520 Meridian Ave, Miami Beach, Florida 33140, United States"}]